{"type": "FeatureCollection", "name": "pennsylvania_territories", "crs": {"type": "name", "properties": {"name": "urn:ogc:def:crs:OGC:1.3:CRS84"}}, "features": [{"type": "Feature", "properties": {"NAME": "PA West", "FULLNAME": "PA West", "STATE": "Pennsylvania", "COUNTIES": 33}, "geometry": {"type": "Polygon", "coordinates": [[[-80.51934770769222, 41.97720361915999], [-80.4939533533494, 41.987031013887005], [-80.48877337303695, 41.98763630122219], [-80.4578761109707, 41.99708805985797], [-80.43695080431736, 42.00583826350278], [-80.4317774576857, 42.00595685396792], [-80.41983465541132, 42.009771568308004], [-80.40249343727386, 42.01324993180292], [-80.38878252236127, 42.017791509340945], [-80.37597965130999, 42.02342230230772], [-80.3706414842202, 42.02430002161563], [-80.36330998441395, 42.027902526019794], [-80.35109810154489, 42.02966566071152], [-80.32789556420062, 42.036573739156424], [-80.29675906430565, 42.048870266266604], [-80.28036792378639, 42.05641024340398], [-80.26602834691508, 42.06101641221561], [-80.2473848927498, 42.070856066013974], [-80.2400766695244, 42.07699343513111], [-80.23628627228742, 42.07831878500995], [-80.23201535048666, 42.07744740443025], [-80.21758404280446, 42.08191734847346], [-80.20618696339059, 42.087949718603376], [-80.19771095460771, 42.08979974957147], [-80.18794544083191, 42.09406149540653], [-80.16675546112494, 42.10541780081434], [-80.16105886762891, 42.11002962125135], [-80.1579474098269, 42.11113159033369], [-80.15421362537558, 42.11560429723464], [-80.14812382110965, 42.12620213121843], [-80.14259286896994, 42.13857893710128], [-80.13420892879235, 42.15069173980724], [-80.12783949108702, 42.15736134355308], [-80.12288689136092, 42.16046826265345], [-80.11654386908657, 42.16632937769548], [-80.11150608653021, 42.167336359046566], [-80.10166876796987, 42.17198510205133], [-80.10026476713685, 42.17158140440565], [-80.09635442006501, 42.173041698921324], [-80.08968439353077, 42.173018805666445], [-80.07691420863127, 42.17090795178267], [-80.06532405624266, 42.17203508945613], [-80.0622244343615, 42.17115260269413], [-80.06091298788786, 42.169452312950575], [-80.06269321074757, 42.1673446530406], [-80.06617806799704, 42.169479341952595], [-80.06885677512867, 42.167711833849744], [-80.06895720007905, 42.16860015052636], [-80.06993483065692, 42.168863424069166], [-80.07322121864853, 42.167068347048264], [-80.07875815023391, 42.166116889235994], [-80.07828003244549, 42.16810591371907], [-80.07886664054438, 42.16843878629852], [-80.07961489060087, 42.16776791283756], [-80.07997098009653, 42.170051337431765], [-80.08285783535261, 42.1705295395035], [-80.08208323508937, 42.16625326707359], [-80.07249405072943, 42.1552364373201], [-80.07992331397078, 42.15226393421148], [-80.08274677158943, 42.158017684001145], [-80.08917563250502, 42.16156369799328], [-80.09187475265725, 42.16064728784437], [-80.09304101673489, 42.15857781338007], [-80.09244195680351, 42.15574655186321], [-80.09097113360257, 42.15491022476923], [-80.08895720342706, 42.15529577320522], [-80.09004125983967, 42.15437685589528], [-80.10578216120855, 42.1526188083111], [-80.12123420681802, 42.15230325418297], [-80.12713616847427, 42.150306234305155], [-80.13303207631265, 42.14264357627252], [-80.13949955996074, 42.13971496855561], [-80.14362838115699, 42.13094270520693], [-80.1419061234029, 42.12814651150172], [-80.14290925553502, 42.12680429393091], [-80.14652169864239, 42.12542881715594], [-80.15180998456192, 42.114878877141486], [-80.15166039202482, 42.11425335070925], [-80.14988927962514, 42.11339878703386], [-80.13247962057265, 42.11888498858263], [-80.1319438597482, 42.120080314351924], [-80.133393959895, 42.122542924233045], [-80.13018683142411, 42.12378524640725], [-80.12744621206565, 42.12129371228949], [-80.11406154155209, 42.125778458162415], [-80.1139805176156, 42.12709116943979], [-80.11244213499872, 42.12836797744613], [-80.11332358982355, 42.12996557752717], [-80.11059188752535, 42.12731994658532], [-80.1099323374044, 42.127825460799635], [-80.11027139076893, 42.13030259097484], [-80.10943890158826, 42.130312515485514], [-80.10895224159404, 42.12801766174233], [-80.10757501643772, 42.12840937184827], [-80.10893431957123, 42.130639612646235], [-80.10898191471011, 42.1310795065727], [-80.10815640404384, 42.13142175114272], [-80.1067464745306, 42.131636688485266], [-80.10512246118454, 42.12943092674119], [-80.10082604318316, 42.13100892860205], [-80.09955620243882, 42.130759452620005], [-80.0977817525461, 42.13227827351341], [-80.09813636427438, 42.13333053345947], [-80.09544480066731, 42.13419698839049], [-80.09593085331869, 42.13546231430701], [-80.0951954961478, 42.137566936410785], [-80.0942308878523, 42.13794111620968], [-80.09310777669411, 42.136736401705356], [-80.09132507915083, 42.137410633169175], [-80.09101149498937, 42.13790395104384], [-80.0913940359231, 42.139026251466454], [-80.09022175099922, 42.13799454149832], [-80.08664708327726, 42.1409227292333], [-80.08194460389178, 42.14306882251259], [-80.08213139541121, 42.144908737507016], [-80.08527113969339, 42.14640616405511], [-80.08466020099026, 42.14854430798885], [-80.07463459767293, 42.153062520741955], [-80.0732498085074, 42.15078342402994], [-80.07414898066068, 42.150113809786866], [-80.07341138812484, 42.14896757520455], [-80.07450223694732, 42.148133676386536], [-80.07431824320112, 42.147437481661065], [-80.07069132422019, 42.14545413287648], [-80.06091778791988, 42.145000388560234], [-80.04157450596688, 42.15333516426545], [-80.01496614451787, 42.16625058785531], [-80.01211277144247, 42.16618693065984], [-80.00426369733884, 42.170786775918245], [-79.99379088719927, 42.17456257382908], [-79.98930006725607, 42.17682685298936], [-79.98487562061828, 42.18075905653774], [-79.96735691635179, 42.18821522681122], [-79.96336725911296, 42.191117738491045], [-79.95491498361758, 42.193806513305454], [-79.9459179479675, 42.19978535280498], [-79.9373941758992, 42.202913754308035], [-79.93093896217, 42.20676123451974], [-79.9251202520557, 42.20702240616012], [-79.91895193010527, 42.210721323797195], [-79.9163403942901, 42.21064971813597], [-79.90717175755299, 42.21531334680294], [-79.9023315466618, 42.215835973858475], [-79.87396729053435, 42.23145763163925], [-79.87245041113769, 42.231804403384956], [-79.86895312748825, 42.23053131992785], [-79.84385298299777, 42.235479454510894], [-79.83785723078891, 42.23834919038479], [-79.83171447589659, 42.24288579843123], [-79.82611452636682, 42.2430488582183], [-79.81810668335028, 42.245242602046225], [-79.80139744117028, 42.25544903663162], [-79.7967136854725, 42.256122937559205], [-79.79496761971225, 42.25786045196231], [-79.7953232649402, 42.258815059749416], [-79.79352337862841, 42.25996612038456], [-79.79104288752941, 42.259247407148194], [-79.78201761924961, 42.26445693667764], [-79.77723842681242, 42.26538092549177], [-79.77292088419746, 42.26445342339773], [-79.76281133201637, 42.269260322545875], [-79.76186779082637, 42.269349173555575], [-79.76195401365929, 41.999385260803685], [-79.76150343696793, 41.99888751063294], [-79.41173221555415, 41.9984042694379], [-79.1584378137765, 41.99967013838987], [-78.91894328396675, 41.998073255032516], [-78.7592386081489, 41.99820268664195], [-78.62375687136937, 41.99997610707468], [-78.20703578836778, 41.99951534832479], [-78.1214284563686, 42.00036288188445], [-77.89434797623197, 41.99820653323637], [-77.60977114216188, 41.99938335115088], [-77.59696661775973, 41.44132258927543], [-77.58467117015454, 41.44132004198009], [-77.58064178261685, 41.435828610284425], [-77.57503592579117, 41.42026861259136], [-77.57017159509623, 41.41465592329301], [-77.56415857766065, 41.412437043045635], [-77.54957991080103, 41.39464376134952], [-77.54203859371135, 41.38177241672131], [-77.5399650475487, 41.36798284059646], [-77.53752194824959, 41.36489193211883], [-77.5264842621915, 41.358510696230155], [-77.51691072206684, 41.35595191850507], [-77.49997934079603, 41.353962461695794], [-77.48606632294894, 41.3456490110361], [-77.47628412818618, 41.338546769678246], [-77.47463771847931, 41.33546334390908], [-77.47495641891986, 41.32524097641093], [-77.47153332938066, 41.313634422878955], [-77.46651612625085, 41.30928068205641], [-77.45560769629485, 41.303999282747895], [-77.45272884288596, 41.29969722039143], [-77.45065404565388, 41.29412418221347], [-77.4453216345276, 41.28790327736631], [-77.4419427360244, 41.2860435316131], [-77.43478089745207, 41.28469894496355], [-77.42991651343942, 41.28266521086759], [-77.42489995152903, 41.273069731606576], [-77.42108437948681, 41.270989773597165], [-77.41580425417874, 41.26996635967787], [-77.41168240274496, 41.2670103750728], [-77.39895801510072, 41.252990101020956], [-77.3749693950713, 41.23680072851394], [-77.3701588446755, 41.23268685706741], [-77.36208039038294, 41.23348580350583], [-77.35748697042489, 41.23045526449664], [-77.34978485278357, 41.22879612451223], [-77.34861796099554, 41.223086659008985], [-77.35078921435053, 41.22078331925857], [-77.35062945353755, 41.22009191112833], [-77.33479793561155, 41.22059182738077], [-77.3307210896479, 41.21946254759418], [-77.32977364502536, 41.220623026628296], [-77.32847540114567, 41.219260704852594], [-77.32593242437304, 41.219787332206465], [-77.32345795789352, 41.21866278815103], [-77.32084078237368, 41.218757149935605], [-77.30525331257233, 41.20715841239649], [-77.29885995541024, 41.20065822268897], [-77.29404089183274, 41.19856233354583], [-77.29068214778144, 41.19587909161159], [-77.29048963846522, 41.194642921832866], [-77.29380522908805, 41.19044028097398], [-77.29197089641282, 41.18483794466553], [-77.28689060551136, 41.182630804348385], [-77.28310076674535, 41.18271409056462], [-77.27658186982084, 41.17980621269965], [-77.27282540186037, 41.17616088421774], [-77.27171093021654, 41.17209627833783], [-77.16445448222095, 41.0688533580979], [-77.14411910233684, 41.06894031558151], [-77.14415904878494, 41.04446046591138], [-77.14346209949301, 41.042971149233296], [-77.2031132436406, 40.993681274361485], [-77.27922337221435, 40.909717396080865], [-77.3636150764986, 40.84724812995553], [-77.36337226323008, 40.84662952712442], [-77.35731841619405, 40.844246257177616], [-77.3542648263308, 40.70207761485486], [-77.28805393319797, 40.693615591784706], [-77.32310497170675, 40.68306738399082], [-77.36070534594919, 40.67000572662789], [-77.4074683324216, 40.65223326725873], [-77.47924684323674, 40.61999432653358], [-77.4976130616134, 40.609562420648004], [-77.4976743053366, 40.5817240073091], [-77.52678200793875, 40.56278602751701], [-77.57762344953736, 40.53555064385481], [-77.6124422910972, 40.514243006269716], [-77.61249512380022, 40.49088490780177], [-77.62839573975009, 40.48142238846902], [-77.65001375772493, 40.46521433284941], [-77.68607599511824, 40.43593546314088], [-77.7218913127358, 40.40865816247976], [-77.7520027910692, 40.37848243338532], [-77.70307151737828, 40.26419667607006], [-77.69890877395338, 40.265810224794755], [-77.68066806424676, 40.280160210662835], [-77.67178447687888, 40.28986487612814], [-77.66419165381248, 40.28048881064365], [-77.66502089372297, 40.279456210098445], [-77.6643105195006, 40.278288868996945], [-77.65986756234945, 40.2748126165671], [-77.65640940829533, 40.27039417874783], [-77.6708876550249, 40.25861810062521], [-77.67106427168969, 40.25743977150877], [-77.66783074824848, 40.25220562089859], [-77.66544794483346, 40.25207080182712], [-77.65276089381993, 40.25753058411318], [-77.64816349370228, 40.25723115337238], [-77.64508576131156, 40.2551434110302], [-77.64512953887468, 40.2537460765777], [-77.64987896977543, 40.24799414733022], [-77.64539924119724, 40.23892859620406], [-77.64885943250566, 40.23334217436275], [-77.65012700537376, 40.22756486572162], [-77.64774986588148, 40.222836964342186], [-77.64588474060656, 40.2238136841122], [-77.64517020608739, 40.22263137165344], [-77.64339324943035, 40.22317249996588], [-77.64271919523921, 40.21821262929681], [-77.63978001512686, 40.217758417796155], [-77.61616704948301, 40.23262039726363], [-77.60916863776622, 40.232754861385565], [-77.6065770316554, 40.22971381752694], [-77.60271576799941, 40.22820267256099], [-77.6048867594267, 40.22482172475744], [-77.60501896081331, 40.205510974284], [-77.62704109662054, 40.18872706026503], [-77.62276467607818, 40.18333601125763], [-77.61648498272741, 40.17242415931986], [-77.61369776383147, 40.17033627356814], [-77.61420662176059, 40.16675326862453], [-77.61339005662896, 40.1620866303827], [-77.61027014758336, 40.15805355256482], [-77.60862219354306, 40.15323811430865], [-77.60406602789351, 40.15129328754473], [-77.60147861023113, 40.147861000358176], [-77.59898043855637, 40.14710877135353], [-77.5959317409568, 40.14346243456831], [-77.59324784746748, 40.14220604011178], [-77.59219039762361, 40.13897738176007], [-77.59262074595465, 40.13512843223642], [-77.58981757772528, 40.1337199279183], [-77.58209575303448, 40.13426040350469], [-77.57553793356657, 40.128480593510204], [-77.56878071169973, 40.12623703858374], [-77.56471445869623, 40.12177015853266], [-77.56442161220833, 40.119870552997455], [-77.56268115399443, 40.11876098407858], [-77.56277767193386, 40.11575755657905], [-77.56074154862013, 40.10849802094217], [-77.55792987127738, 40.10308745297041], [-77.56144353405438, 40.09833299441764], [-77.56046861690827, 40.094509246389194], [-77.55908054205545, 40.09399439102492], [-77.55398999248058, 40.09591404571917], [-77.55228832804693, 40.09502295446367], [-77.54982626831807, 40.0909096644742], [-77.5430598295895, 40.08970731023081], [-77.54312787550444, 40.08713474157718], [-77.54567381075073, 40.08654716708863], [-77.54601229255069, 40.086018439988884], [-77.5424438337793, 40.083859149832946], [-77.54339832964496, 40.082223777024936], [-77.54098259504796, 40.080564474981365], [-77.54205280986167, 40.0791392126857], [-77.54416781167652, 40.078305048580326], [-77.54385301982809, 40.0778008482345], [-77.54023639049379, 40.07676475552393], [-77.54150788569576, 40.075485973676656], [-77.53981751573932, 40.07395452674991], [-77.54146637393283, 40.07028528863685], [-77.54099685148002, 40.06998760268841], [-77.53548330442403, 40.07066440618308], [-77.5319495348187, 40.067277934815856], [-77.53308431884429, 40.065923256652], [-77.533012815984, 40.06307713321671], [-77.52947616070456, 40.05764217568406], [-77.53246255914458, 40.048825289627786], [-77.52794690289844, 40.04736795768507], [-77.5262181691349, 40.04571118850849], [-77.52191208042333, 40.04660869497593], [-77.51812109444944, 40.04520997816719], [-77.51704863923942, 40.04410721041363], [-77.5196090787939, 40.04083268158006], [-77.5193419439273, 40.0393255884009], [-77.5151484540746, 40.03459873493234], [-77.51240099230739, 40.033670272230886], [-77.50748899116951, 40.02861489257493], [-77.50906731989795, 40.02473590514325], [-77.50003507837187, 40.01328078764809], [-77.49952894819434, 40.01001277666802], [-77.49570146523955, 40.005343882147564], [-77.4891982042561, 40.00126484958148], [-77.48338768509072, 39.994741819696564], [-77.4797447296021, 39.99223342238071], [-77.47410587757354, 39.99172335449652], [-77.47098210994903, 39.98700905815464], [-77.46552466568598, 39.984264956618446], [-77.46166184812935, 39.977130345449375], [-77.45381968263723, 39.97252541485865], [-77.4721207755907, 39.94431337457704], [-77.46439092979433, 39.83727732718519], [-77.45953956291068, 39.74307732257889], [-77.45943998335866, 39.72003605465763], [-77.9364725844243, 39.722408553762705], [-78.80828688401238, 39.72296972396991], [-79.3924575922387, 39.7214378101277], [-79.9160515845972, 39.72073275074954], [-80.51926639488137, 39.72134279867984], [-80.51863680592065, 39.961709315455266], [-80.51908977636823, 39.96222065468262], [-80.51934770769222, 41.97720361915999]]]}}, {"type": "Feature", "properties": {"NAME": "PA East", "FULLNAME": "PA East", "STATE": "Pennsylvania", "COUNTIES": 34}, "geometry": {"type": "Polygon", "coordinates": [[[-77.75234183815473, 40.37905652186015], [-77.72190595370594, 40.40864701183389], [-77.68607297914721, 40.43593791184284], [-77.65001762128709, 40.465211436153226], [-77.62838504961327, 40.48143040337271], [-77.61266450013207, 40.490793898157094], [-77.61264005571437, 40.5141243360312], [-77.57762976933883, 40.53554725838397], [-77.5267913864235, 40.56278100353221], [-77.49782472587263, 40.58163729239272], [-77.49782648980158, 40.609443213077526], [-77.47925762077702, 40.619989485715024], [-77.40747522506793, 40.65223064768102], [-77.36069519345703, 40.670009473761304], [-77.32310000614633, 40.68306910890328], [-77.28963813464176, 40.69322510042524], [-77.28996211268255, 40.694041204780426], [-77.3543153998854, 40.701873488570335], [-77.35731579790598, 40.8439730456338], [-77.36416986670771, 40.84693965332605], [-77.27922461141256, 40.90971876575077], [-77.20310112433718, 40.993694644391816], [-77.14359184698483, 41.043047275342396], [-77.14415922875108, 41.04435176511941], [-77.144304636339, 41.06889171411908], [-77.16434351985838, 41.06874408949461], [-77.27180516317877, 41.1721869879772], [-77.2728418765161, 41.176151339475275], [-77.27652608263101, 41.17975208680776], [-77.2830388545488, 41.18268487884347], [-77.28689270174868, 41.18261991630294], [-77.29202300499753, 41.18482241359629], [-77.29386607931575, 41.19050237412198], [-77.29057813279918, 41.19454730724232], [-77.29076696514026, 41.19593653968346], [-77.2940621689402, 41.19856993774741], [-77.2988649854817, 41.20065089482436], [-77.30525405555846, 41.20715756050953], [-77.32070726060896, 41.21865779952399], [-77.32343733147329, 41.2186439685564], [-77.32595838764632, 41.21976237284632], [-77.32857429067049, 41.2191995092876], [-77.32964365851367, 41.220250470357946], [-77.33048529114494, 41.21937564441832], [-77.33482447949658, 41.22058881227739], [-77.35157108024268, 41.21997255230678], [-77.3486677143344, 41.22315078770429], [-77.3499276732645, 41.228789655760494], [-77.35749019283735, 41.23044759889867], [-77.36211196619622, 41.233460789524], [-77.37007787601661, 41.23260441576924], [-77.3749814248707, 41.236808844964884], [-77.39895980541783, 41.2529880342503], [-77.41171484049926, 41.267033644768226], [-77.41580865480154, 41.269956138549404], [-77.42111058791569, 41.2709928154809], [-77.42495211157426, 41.27308775839609], [-77.42999618636699, 41.28268848145347], [-77.43478149832745, 41.28469693548865], [-77.44196990544147, 41.286046460930464], [-77.44532644497754, 41.28789736610392], [-77.45066044831434, 41.29412041545993], [-77.45273116144712, 41.29969603576265], [-77.45559957133842, 41.30396823670742], [-77.4665367646522, 41.30928907841513], [-77.47155068263748, 41.31362325900889], [-77.47496607678168, 41.32526642138246], [-77.47464240432103, 41.33538205500622], [-77.47630882949827, 41.338555247876755], [-77.4860759251473, 41.345654749194175], [-77.49993383838364, 41.353932836957405], [-77.51692875039032, 41.3559540361165], [-77.52653703840221, 41.358524831898016], [-77.53799786219588, 41.36536987002627], [-77.53995493907983, 41.36790099514531], [-77.54204674016836, 41.38176953943434], [-77.54956504268921, 41.394618386995425], [-77.56410740403346, 41.41237119831605], [-77.5701600981173, 41.41462787545958], [-77.57506791876935, 41.420303174626056], [-77.580635126981, 41.43580493037704], [-77.58452363049021, 41.44111900380358], [-77.59699730811768, 41.44101245148749], [-77.60976999362475, 41.999383331913464], [-77.47235508088674, 42.000152940069654], [-77.16142107693803, 41.99960527452071], [-76.92688370731999, 42.001576926613595], [-76.77225123089107, 42.00181380886144], [-76.42294352709823, 41.998611543280354], [-75.96986204805725, 41.99901092651241], [-75.76470311200023, 41.997856234358245], [-75.35964477280265, 41.99955359820228], [-75.34546256030782, 41.99499000599469], [-75.34064015640818, 41.99241724131946], [-75.3376174163048, 41.98724118133843], [-75.33748688722699, 41.9846037714942], [-75.34185615481107, 41.975392506110474], [-75.34197739710328, 41.972761526302044], [-75.33823227874, 41.970482163156625], [-75.33627144173136, 41.970900378779895], [-75.3279690934721, 41.96794270839743], [-75.325850816871, 41.96474205672058], [-75.31963893485171, 41.960311315323985], [-75.31768717654195, 41.953666663715595], [-75.31091427045968, 41.949108846679586], [-75.30234408805266, 41.94802689725174], [-75.3009814639501, 41.94876875077809], [-75.3017183673782, 41.95188439348396], [-75.30083532584321, 41.95362840705181], [-75.29751765941296, 41.95468448576812], [-75.29326958527226, 41.9543299878467], [-75.29148482535436, 41.952501076534766], [-75.29161231752494, 41.946698778238385], [-75.28955826224158, 41.94329946617031], [-75.28459981867529, 41.94193501533702], [-75.27876386840369, 41.93871265773998], [-75.27863085732052, 41.93626684224093], [-75.27694909147031, 41.93288588071648], [-75.27661025425135, 41.922217000707725], [-75.26727632333021, 41.90609001759052], [-75.26771610263108, 41.902074182185885], [-75.2729250310814, 41.89652458752741], [-75.27169046620902, 41.88849347016807], [-75.27064104508709, 41.88682727495738], [-75.2631148803925, 41.88504827943905], [-75.2595832735617, 41.882323489086126], [-75.25745916197677, 41.87609302213177], [-75.26315158004019, 41.871741439207426], [-75.26422634041933, 41.86952576649713], [-75.26158445611472, 41.86494503874274], [-75.25841307581011, 41.862356828089], [-75.2500093364447, 41.862241921301916], [-75.24403782084225, 41.86651122088611], [-75.24114714925577, 41.867250950856224], [-75.23156825194924, 41.859434707460295], [-75.22451443743093, 41.85763787805312], [-75.21956256016146, 41.86121032268948], [-75.21502385465932, 41.867349022435214], [-75.20463654860464, 41.86992727229899], [-75.194904170372, 41.86757991031032], [-75.1914471915953, 41.86514018760533], [-75.18912277940763, 41.86168538411197], [-75.18539459593677, 41.86014431718488], [-75.18170065961625, 41.86310313978033], [-75.17803190936661, 41.870909342417356], [-75.17582653588369, 41.87257365673131], [-75.1724596561796, 41.872282019198984], [-75.17014147724309, 41.871349670691444], [-75.16842497327774, 41.86933464418707], [-75.16830538522326, 41.85868092953212], [-75.16523715625026, 41.85281932714082], [-75.16289316574289, 41.850582706900326], [-75.1546543441739, 41.84847268828299], [-75.14056147006218, 41.85221907896908], [-75.1310063119087, 41.845300918314855], [-75.12011687728511, 41.84621609182232], [-75.11659551247467, 41.84544811097748], [-75.11340586928482, 41.8421398989917], [-75.11314499966362, 41.836165361805804], [-75.11504575079539, 41.827599189342976], [-75.11292495706587, 41.82261354280111], [-75.10056503942498, 41.818926256834125], [-75.09563577911189, 41.81473110362637], [-75.08984925787402, 41.811711134393384], [-75.08513610406214, 41.81185656889982], [-75.07876874568782, 41.81520933750465], [-75.07475968660744, 41.81529351527911], [-75.07224827790542, 41.81413089026593], [-75.07150946885758, 41.811303640382256], [-75.072343430542, 41.80664404343206], [-75.07565275471202, 41.79955591102077], [-75.08062223864968, 41.79669873504949], [-75.08844542623218, 41.79769773331537], [-75.09293761133334, 41.7963986494693], [-75.10167363030057, 41.787570499446026], [-75.1046492144901, 41.77420076596391], [-75.10184822097948, 41.76963649476463], [-75.09450503243394, 41.768351210594545], [-75.07915643314496, 41.771606509308036], [-75.07461077604962, 41.77126889053563], [-75.07238598488837, 41.768538397887305], [-75.06475854580668, 41.76668697662337], [-75.06123696797495, 41.76478937189436], [-75.05304329746964, 41.752064283719946], [-75.05265353032769, 41.743921818587374], [-75.05482047660401, 41.73484728894327], [-75.05366897992248, 41.727323007844916], [-75.0516988381888, 41.71952854636824], [-75.04971921752899, 41.71590911302339], [-75.04968783566565, 41.713371963271], [-75.0523591681775, 41.71148488189289], [-75.05920363861912, 41.71280735099973], [-75.0661908440578, 41.712748415197595], [-75.0678423172509, 41.71173614020123], [-75.06890735227304, 41.70930344817953], [-75.0670416096113, 41.70513554284103], [-75.05872340073078, 41.69846834314702], [-75.0526273967941, 41.68811018089053], [-75.0512526902452, 41.68001853563185], [-75.05833797692415, 41.67495471568217], [-75.05945572124428, 41.67223340315001], [-75.05750545840485, 41.668881421422135], [-75.05400228472406, 41.66806734310484], [-75.04966965171889, 41.66096188271592], [-75.04883955969785, 41.65729112095569], [-75.04918183096251, 41.65005639488535], [-75.0477035768854, 41.6459056066155], [-75.04948409615967, 41.64153478149003], [-75.04862616755085, 41.63310482870506], [-75.04357169966886, 41.62306929254485], [-75.04446532245989, 41.62074672184519], [-75.0442744964449, 41.61764388025167], [-75.04578554157227, 41.61585188479862], [-75.04838076483747, 41.61592277701269], [-75.05302491211555, 41.61848909617669], [-75.05890476268591, 41.61778827224468], [-75.06146666867522, 41.6159710507971], [-75.05972866882676, 41.610415510186336], [-75.06369762878565, 41.60927122149546], [-75.06916667793224, 41.61019378634961], [-75.07426259443868, 41.608185674158776], [-75.0743497114288, 41.60602551784237], [-75.06981786718468, 41.60207123878557], [-75.06023602792139, 41.591052347670555], [-75.0529346390505, 41.58789368324172], [-75.04682536777813, 41.583224518894646], [-75.04390954334677, 41.574724194104896], [-75.04048480822213, 41.569661622320424], [-75.0335884787427, 41.565248222850144], [-75.02805545690055, 41.56433845288502], [-75.01881288948765, 41.55244769625091], [-75.01612817277417, 41.54659223608525], [-75.01597692521078, 41.54420501243695], [-75.01750372286524, 41.542642835744495], [-75.02222269019967, 41.54174708566695], [-75.02458016865491, 41.54018235386785], [-75.02452003367263, 41.53463005806487], [-75.02313768956974, 41.53316802401164], [-75.01679752693857, 41.53219472663661], [-75.010679044323, 41.529093576315155], [-75.00321228628339, 41.523480473639296], [-75.0007497563926, 41.51859724510506], [-75.00364330181762, 41.51185836313065], [-75.00346537229413, 41.508334644062415], [-75.00022975218441, 41.50739090023456], [-74.99379528349789, 41.508884742370135], [-74.98800449837965, 41.50887857817009], [-74.98424083218843, 41.506508357516], [-74.98227038063071, 41.4986850138645], [-74.98562469539662, 41.485865276179965], [-74.98470762642108, 41.482935297171466], [-74.98255495765271, 41.48035129028068], [-74.96698348989693, 41.47703852306383], [-74.95750163429818, 41.476649204966606], [-74.94819977332723, 41.48059049815739], [-74.94604111725197, 41.483086318972916], [-74.9434015124518, 41.48367982699999], [-74.9331248249508, 41.48257665148018], [-74.9242556234275, 41.47720194145632], [-74.9179657893471, 41.4771720557897], [-74.91303509847828, 41.47601602553435], [-74.90913206123726, 41.47231879725776], [-74.90807190114009, 41.46435331879899], [-74.90653413754592, 41.46093832398766], [-74.89476823283536, 41.458144923264285], [-74.89030858305009, 41.45580842904488], [-74.88929031184519, 41.45079681075373], [-74.89447749742173, 41.446645352597], [-74.89640150597697, 41.44193407713464], [-74.89555905745385, 41.43968101933362], [-74.89192186962318, 41.4385069763206], [-74.88898677681944, 41.43817093638391], [-74.87871803543301, 41.43987850596334], [-74.86314197855233, 41.44438596820762], [-74.85765309032803, 41.444155477842], [-74.85390874460352, 41.44314587776774], [-74.84788074924303, 41.439626392744785], [-74.83747275610946, 41.431905106608966], [-74.83200733080135, 41.43040611279083], [-74.82636100274809, 41.43167669343936], [-74.82258351236439, 41.43701392213305], [-74.81750434759708, 41.44075836102595], [-74.81150506984969, 41.4430539693365], [-74.8082420279174, 41.442919170382964], [-74.80515786397929, 41.44185260535119], [-74.8011328968386, 41.43830286144469], [-74.79924196278925, 41.43078598628284], [-74.79512346412302, 41.42378616412616], [-74.78911912898923, 41.421438498618414], [-74.7727069053697, 41.426341052461886], [-74.76242470651084, 41.42333709911692], [-74.75827696695578, 41.42337226984684], [-74.74477540678086, 41.43037546213702], [-74.73873259721104, 41.43078008418645], [-74.73513140111865, 41.42680017922358], [-74.73466431993315, 41.42299343988745], [-74.73818168948462, 41.41426845747503], [-74.74104775324551, 41.4112674822009], [-74.74173830977718, 41.40703958230748], [-74.73682369280975, 41.399341039599506], [-74.73452826558669, 41.39738780507155], [-74.72904990965078, 41.39534173383482], [-74.72012628691533, 41.3946562259696], [-74.71635823913597, 41.393019627850975], [-74.71252167525422, 41.388758970849054], [-74.7084224961767, 41.37917537339076], [-74.69379865938677, 41.36986471636277], [-74.69035650405684, 41.36610086574317], [-74.68968405608345, 41.36364634706863], [-74.68995245673568, 41.36149329982818], [-74.69829744331739, 41.35543098754676], [-74.70843789748517, 41.352791892349764], [-74.72064893862976, 41.347294841411205], [-74.72872480675309, 41.34582023248795], [-74.73627368490385, 41.34664561023933], [-74.75476956158556, 41.34598776566804], [-74.76062289207458, 41.33985908297853], [-74.76290881753721, 41.33214917680146], [-74.7669724285132, 41.32775906203139], [-74.77406118091795, 41.3244380119089], [-74.78466769507342, 41.32425178074882], [-74.79338058201952, 41.322146738116416], [-74.7960621816599, 41.31863138935468], [-74.7923292913268, 41.31404002623264], [-74.79206736124765, 41.311148553705], [-74.80653583992726, 41.30344331094014], [-74.81513830495179, 41.29629651163706], [-74.82128486524155, 41.294311901866045], [-74.82951524735986, 41.28792389445285], [-74.8351568380121, 41.28008933485844], [-74.83805390389011, 41.27768304012801], [-74.84055603071275, 41.27155772620906], [-74.84605915802642, 41.26339117755203], [-74.84642510430005, 41.26184422269136], [-74.84488452819622, 41.25748701849271], [-74.84713612489244, 41.25283658689449], [-74.8490263878541, 41.25125827958321], [-74.8562984408684, 41.24975545454473], [-74.86139198488958, 41.243144051361874], [-74.86200649991653, 41.23805145534623], [-74.86646072484668, 41.23232224569354], [-74.8676527821252, 41.22822253386732], [-74.86542363913686, 41.22502579274396], [-74.8601562749411, 41.221780695562366], [-74.85944116209379, 41.21858168258696], [-74.87504102932124, 41.196834828851706], [-74.87812213243954, 41.19065157589941], [-74.87879099562491, 41.186945003567494], [-74.8823583521507, 41.18065610539759], [-74.88966341242009, 41.17346771734186], [-74.8996457605226, 41.1667491367809], [-74.90465797511938, 41.15628720469612], [-74.92037958379197, 41.14234320645515], [-74.92305969843528, 41.13848336202185], [-74.9314193763664, 41.13351315361672], [-74.94596255929093, 41.12856798738484], [-74.94746516422609, 41.126777575401725], [-74.94686110826537, 41.12453186911206], [-74.94764121453177, 41.12352072630029], [-74.96328435057171, 41.11464379057172], [-74.97381556063038, 41.113070113454654], [-74.97950998833736, 41.11080612456117], [-74.98217901654805, 41.10819165347798], [-74.98928556278395, 41.09549712847733], [-74.99152508668388, 41.09251982837066], [-74.99143802736413, 41.08901263649664], [-74.98805169152519, 41.08827874425138], [-74.98188660242243, 41.089591885732], [-74.97122508631855, 41.09583429537573], [-74.96885009811156, 41.09611407522215], [-74.96692037221806, 41.09442582478271], [-74.9677576129599, 41.08920406599843], [-74.97072544267905, 41.085391130766354], [-74.981333633811, 41.07968229708267], [-74.99361882256632, 41.077111790374616], [-75.0005787897272, 41.07329743765371], [-75.00695061107415, 41.06766011601935], [-75.01242545002657, 41.067099119726], [-75.01643685016475, 41.05986394268185], [-75.01735292234557, 41.05610551718875], [-75.02702277077316, 41.04547149383283], [-75.02723127239922, 41.04353498796783], [-75.0255721087044, 41.04146009916313], [-75.02657497251364, 41.0398129419794], [-75.03408056886452, 41.03738661947222], [-75.04191593175034, 41.03159721207031], [-75.07168560642293, 41.018261754947794], [-75.08426052019004, 41.01597308484103], [-75.09336428695497, 41.00946514422518], [-75.10693221870375, 41.005254801453546], [-75.11158811143424, 41.00188215947478], [-75.13001938982254, 40.99205458665692], [-75.13161631736823, 40.98986536460252], [-75.13261352669525, 40.980452160459116], [-75.13567268500015, 40.97652443905924], [-75.13544173634233, 40.97317624883174], [-75.13117653872483, 40.969188445436295], [-75.12259761001847, 40.970068097929506], [-75.1202206792066, 40.96869696421696], [-75.1207909695785, 40.96290924958801], [-75.11772982265495, 40.95320096989697], [-75.11092100369618, 40.947394222578396], [-75.10628458729639, 40.939897518900395], [-75.1047846369385, 40.93500703237505], [-75.09712057161168, 40.925479413892795], [-75.07876219509046, 40.913122395985745], [-75.07591583939849, 40.90720357980884], [-75.07493306057616, 40.89990207693019], [-75.07539071697563, 40.894188821754035], [-75.07196151208584, 40.89035684113617], [-75.06465292641784, 40.884751348689925], [-75.05908055311775, 40.878118143484365], [-75.05219694547807, 40.87195568290455], [-75.05085065620084, 40.86780735228041], [-75.05119126842139, 40.86469777321323], [-75.05876380114086, 40.86043046894881], [-75.06366381281107, 40.85586108149451], [-75.06437496487206, 40.85420055667324], [-75.0636342682962, 40.8504657617294], [-75.06543115233461, 40.84769261110835], [-75.07115475934175, 40.847230212269686], [-75.07451057620911, 40.84946582549309], [-75.07710533162069, 40.84989128939092], [-75.09194339173229, 40.84902875089698], [-75.09620239490003, 40.846493310930725], [-75.09734678724885, 40.84241620614592], [-75.0964100425315, 40.838244260593115], [-75.08517698816146, 40.82964173024108], [-75.08363173930918, 40.82687293249472], [-75.08368734697098, 40.82487266094593], [-75.08958674620017, 40.816372670866826], [-75.09618726708018, 40.812222565841545], [-75.09896337606524, 40.80920554534897], [-75.1007648511453, 40.80562705433211], [-75.10066682652399, 40.79926322708881], [-75.10697276090711, 40.79347710707214], [-75.10848311206509, 40.790917972491975], [-75.11661891150298, 40.7892335433391], [-75.1227604833846, 40.786505758567046], [-75.12657854755928, 40.78332899746614], [-75.13143583659816, 40.775572039209315], [-75.13483415907524, 40.77346730669849], [-75.15090984107748, 40.77482903885275], [-75.1649395986653, 40.77839659650045], [-75.17147614037889, 40.77751636392752], [-75.17567839346744, 40.77257159524124], [-75.17850767731814, 40.7623171304626], [-75.18280237190997, 40.759349734876686], [-75.19193599968149, 40.755857052331066], [-75.19563813684589, 40.75266423258035], [-75.19676185936748, 40.74915223178404], [-75.19468040940075, 40.744575588549644], [-75.18524318277954, 40.73679870113249], [-75.18255425202874, 40.733161953958856], [-75.18208121774389, 40.7307340142996], [-75.18614621995141, 40.725349580356486], [-75.18662523065879, 40.719621042765255], [-75.19466264544327, 40.71379470935227], [-75.19529168153473, 40.71099365842999], [-75.1987380535934, 40.70555952527641], [-75.20104381133362, 40.69825447864446], [-75.20354109792031, 40.69453279292122], [-75.20390121477463, 40.69070085626683], [-75.2007311552408, 40.685166457125945], [-75.19662629146991, 40.68122087754437], [-75.19082195282326, 40.67958678481525], [-75.1805638679447, 40.67934975457726], [-75.17790658463369, 40.67797544997042], [-75.17700215076187, 40.675375992263525], [-75.17757284650453, 40.67268286537933], [-75.18227525227779, 40.666629274389116], [-75.1895017074093, 40.66283940844389], [-75.19774258544584, 40.654972516744316], [-75.19789746409747, 40.652352957502124], [-75.20022398027298, 40.648786095605125], [-75.19984324555446, 40.646563953007075], [-75.19594599671917, 40.64372757927132], [-75.1906878919871, 40.635741238489636], [-75.18867807002522, 40.622870333621854], [-75.19068230310704, 40.61974365490321], [-75.1989248758622, 40.61878277411188], [-75.2017284193842, 40.61691883163144], [-75.20117531829285, 40.61480271871105], [-75.19216703541274, 40.60282681209778], [-75.1918944600112, 40.59783162779686], [-75.18943056304524, 40.590300640068314], [-75.19076233920468, 40.58631895157099], [-75.19511251207703, 40.581252329257445], [-75.19549241717039, 40.57863682636503], [-75.19420699879531, 40.57617790342416], [-75.18886518087616, 40.570936468471324], [-75.18422832675154, 40.56804076227399], [-75.17347707242195, 40.56467710742903], [-75.16128170374502, 40.56428799183758], [-75.1571385351763, 40.566003004279644], [-75.14526751627658, 40.57385732570286], [-75.13654083751376, 40.57569691878406], [-75.11754485236486, 40.57348940292663], [-75.09960343863186, 40.56723151405997], [-75.07774218019026, 40.54760917711403], [-75.06897988276225, 40.54252415624786], [-75.06740398560969, 40.53960634344267], [-75.065091019481, 40.52641923081791], [-75.06582998647625, 40.518780660033755], [-75.06509164932052, 40.50382813976671], [-75.06327102175914, 40.49892596784816], [-75.06200981574554, 40.48835883415336], [-75.06349265545501, 40.47884706452076], [-75.06454531911827, 40.47671410781455], [-75.0681460292717, 40.47346724833318], [-75.06701734436868, 40.46581587905252], [-75.0708469115195, 40.4564132739232], [-75.06621014852593, 40.44616409992606], [-75.06462058470414, 40.43715021789507], [-75.06229462423482, 40.43061209903559], [-75.0620769097278, 40.42516473660178], [-75.05863347306934, 40.41850076975237], [-75.05598253992694, 40.416432643639915], [-75.04613056040479, 40.4139834119415], [-75.0390227719791, 40.40858564773105], [-75.02819090580925, 40.404022908379005], [-75.02299776635856, 40.403991432629475], [-75.00388886685343, 40.40762354314312], [-74.99976848717873, 40.40991385713674], [-74.99605888645375, 40.41058053865947], [-74.98879624786059, 40.40863904603338], [-74.98050999575823, 40.40347334758839], [-74.96927178725639, 40.39969377366635], [-74.96607275330942, 40.397762951352966], [-74.96376190121774, 40.39497528335864], [-74.96163751027633, 40.38922706349657], [-74.95502878493174, 40.37840443825174], [-74.94907911988231, 40.3656239745399], [-74.9462185072122, 40.3578691695651], [-74.94500706662282, 40.3462748872985], [-74.93990530902738, 40.337713211617285], [-74.92378689289951, 40.327341782795564], [-74.9147213439186, 40.32000246361016], [-74.90692066460647, 40.316415101222724], [-74.89786313690354, 40.31545241491744], [-74.89332498406372, 40.31393183381933], [-74.87168649985807, 40.298486556887795], [-74.86589178854429, 40.29272476268775], [-74.8603851868837, 40.28509905053622], [-74.85324649715966, 40.269342835999616], [-74.84883145921938, 40.26357807402791], [-74.84203691667092, 40.25006981215326], [-74.83759852858213, 40.24692904560601], [-74.82397402684587, 40.241619488718705], [-74.81563610607306, 40.23640261046795], [-74.8074347184829, 40.23415587858982], [-74.7928053134137, 40.22834070104569], [-74.77425075705612, 40.217225989531656], [-74.7709604100172, 40.21452147254583], [-74.76722602621652, 40.207036908279214], [-74.76072182791962, 40.199094355563446], [-74.75557525324126, 40.18660739276477], [-74.75083953463653, 40.18337682286864], [-74.73911084314989, 40.179050638351114], [-74.73110561126532, 40.17206451432408], [-74.72380891753808, 40.163532323952595], [-74.72130669425647, 40.15720865035582], [-74.72217867406933, 40.15104715333803], [-74.7242910565644, 40.1472107028129], [-74.74166401437972, 40.13487277733422], [-74.74604159495914, 40.13403073499569], [-74.75400754076642, 40.13503639227243], [-74.7597706254424, 40.13403359323051], [-74.78123871469158, 40.12228362548947], [-74.78606161373692, 40.12095012252053], [-74.79982335819263, 40.122924094744214], [-74.81532772314704, 40.12770481944411], [-74.82246770379707, 40.127154013072456], [-74.82602273148031, 40.124652170295285], [-74.82839976371771, 40.121134238368036], [-74.83723140807533, 40.10150147079912], [-74.8411097259661, 40.09885427391855], [-74.85475517802946, 40.09300059541106], [-74.8573675390692, 40.09057646723136], [-74.86106570422626, 40.083777341577104], [-74.87910882913035, 40.08004244416282], [-74.89176968303319, 40.07534876943213], [-74.90715078463516, 40.071058663332614], [-74.91480148921289, 40.07012585885603], [-74.92241113121673, 40.07161598754647], [-74.92819665843487, 40.07054161100342], [-74.94421505003227, 40.063724232181954], [-74.94903389623407, 40.060339844535434], [-74.95836238947834, 40.056707177883574], [-74.97887621163103, 40.04671880575686], [-74.99872977246348, 40.03024998925877], [-75.01379617764773, 40.01978363802549], [-75.01880422314817, 40.01788530981984], [-75.03600063558108, 40.01493638659282], [-75.05000691734014, 40.008376607261674], [-75.0567983686583, 40.00000835081136], [-75.06192628239148, 39.98858320812114], [-75.07248757167231, 39.97951269586075], [-75.07934684785197, 39.97703110261234], [-75.0950009905822, 39.97419823889875], [-75.10708075711138, 39.970710044118384], [-75.12487260260531, 39.96292330517927], [-75.13190538179965, 39.957506299604034], [-75.13433559240008, 39.952336138840806], [-75.13606920529746, 39.945136289253014], [-75.13663810979625, 39.93080630735952], [-75.12983856475175, 39.91535049409493], [-75.12916210787208, 39.908571713804726], [-75.13353100755131, 39.895435188069904], [-75.14019176472895, 39.88587229429334], [-75.15098893054807, 39.88275704412056], [-75.16779182094221, 39.88280048304076], [-75.17933500470093, 39.88177167709459], [-75.1925617391047, 39.87891444066743], [-75.21161424021467, 39.867360957796265], [-75.23260460277841, 39.85761250610743], [-75.25673482138674, 39.85136305034312], [-75.26843797064677, 39.84926685003582], [-75.28179569322457, 39.84796176520198], [-75.30610352430988, 39.84916362257908], [-75.34263963909923, 39.8448358806181], [-75.36469016874811, 39.83266369215887], [-75.38183314999323, 39.82136814109318], [-75.38572094554941, 39.81819262195783], [-75.38894587621398, 39.81312483018529], [-75.39283833957019, 39.81037463542543], [-75.41401713732836, 39.80162455805592], [-75.4367779600637, 39.81346609055847], [-75.45817954003803, 39.822189251940195], [-75.47939486747724, 39.828875991852314], [-75.50229215493269, 39.83415567378287], [-75.5220084828318, 39.83721808576398], [-75.54059697073615, 39.83892758751694], [-75.56112488631577, 39.8395141676603], [-75.5799302879458, 39.838862961613856], [-75.5936601234093, 39.83784956426229], [-75.62670385366472, 39.832178608830496], [-75.65497139160212, 39.8242604191331], [-75.6814637625754, 39.81346283752252], [-75.7066207580417, 39.799408925171534], [-75.72843309206691, 39.78314621300767], [-75.7473319856557, 39.76442022317183], [-75.76251030623672, 39.743982124038034], [-75.77378469949988, 39.722202237531064], [-76.99924935862587, 39.71997117934585], [-77.45943882978317, 39.72003604251873], [-77.45952669590201, 39.74272079406145], [-77.46447738033731, 39.83879223259901], [-77.4721311760367, 39.944434840366895], [-77.45406397323192, 39.97257188900061], [-77.4617611743269, 39.97734734415218], [-77.46550630634297, 39.98421108192157], [-77.47101358266585, 39.98701323745356], [-77.47405701269338, 39.9916114133281], [-77.47885503917075, 39.99180196533873], [-77.48168365516821, 39.993530335080706], [-77.4892001728603, 40.00126238734825], [-77.49565758613008, 40.005290161095424], [-77.49865525860434, 40.00881413037057], [-77.50006501595229, 40.01331664079686], [-77.50929437345255, 40.025079431977666], [-77.50767821101195, 40.028797418438465], [-77.51234941185217, 40.033614599887485], [-77.51509474067858, 40.034535090068815], [-77.51936673029113, 40.03934009613352], [-77.51970489276773, 40.040726114759046], [-77.51722016726931, 40.043979286301365], [-77.51804969846285, 40.045136616869165], [-77.52191344530816, 40.04658813837035], [-77.52623805638756, 40.045643393317505], [-77.52797668025903, 40.04736701040758], [-77.53270367915357, 40.048784282248775], [-77.52953166843564, 40.057557833518274], [-77.5330192962499, 40.063026835288476], [-77.53310553392947, 40.065981346536276], [-77.53218720549334, 40.06745606669111], [-77.53552353130132, 40.07062141803536], [-77.5418771412178, 40.069877188870954], [-77.53990157881827, 40.07383185143681], [-77.54046808029773, 40.07483123304652], [-77.5422490225087, 40.07498045750279], [-77.54079236765583, 40.076737520482084], [-77.54569700877727, 40.07832558824501], [-77.54213688734977, 40.079130253019486], [-77.54122961714894, 40.08059364510108], [-77.54367212985166, 40.082301185712915], [-77.54276043286393, 40.08347230408246], [-77.54285254571428, 40.084054923677044], [-77.54692506008989, 40.08626176394756], [-77.5432823548227, 40.087163220395794], [-77.54323297697604, 40.089657236787716], [-77.54987567972987, 40.090881018964], [-77.55226976205675, 40.09497480054831], [-77.55387761367018, 40.09584588968587], [-77.55915204230897, 40.093957906841034], [-77.56045752320004, 40.09438354091863], [-77.56150290946785, 40.0983189865696], [-77.5580257281832, 40.10322204267287], [-77.56073098850769, 40.10846042126075], [-77.56278692991926, 40.11578245857359], [-77.56285536018746, 40.11897811429984], [-77.56448246585649, 40.11986148986591], [-77.56480988173288, 40.12187806661382], [-77.56847360982266, 40.125995574850776], [-77.57554281522785, 40.128472085324596], [-77.5820629053102, 40.1342027794953], [-77.58986628994725, 40.13370868695623], [-77.59291104072298, 40.13527573840823], [-77.59220542555286, 40.13895095609862], [-77.59328129091584, 40.14217624123553], [-77.59592178116743, 40.14343891746175], [-77.59899297732655, 40.14708937681114], [-77.60143912484664, 40.147794725101534], [-77.60407738418958, 40.15127848018191], [-77.60858705209542, 40.15310813926082], [-77.61026307377486, 40.15802533337015], [-77.61337868065131, 40.16201105671451], [-77.61421337293697, 40.16677963024463], [-77.61378355353152, 40.17032704499869], [-77.6164602635648, 40.17237716607388], [-77.62276580891252, 40.18333522357848], [-77.62726329115898, 40.188752958945926], [-77.6048442436311, 40.20601927497018], [-77.6048878073175, 40.22492221456421], [-77.6030633495576, 40.228246079326766], [-77.60660670485494, 40.22971530290621], [-77.60926021044457, 40.23273185310771], [-77.61616176075509, 40.23260270967626], [-77.63989391407435, 40.21768438101136], [-77.64282982222286, 40.21814141306227], [-77.6434102462327, 40.22277691715701], [-77.64531577236875, 40.2224859396873], [-77.64613040675808, 40.22352659401083], [-77.64763726647486, 40.22248060037428], [-77.65015408746605, 40.22753710775231], [-77.64887670816451, 40.23331883369126], [-77.64547218300856, 40.23893170083767], [-77.6499848859563, 40.247957363655374], [-77.64513771315313, 40.25380394243796], [-77.64568674099607, 40.25594059612242], [-77.64950111833116, 40.25754370525068], [-77.6534016985811, 40.25741176687432], [-77.66549254369716, 40.25204974579532], [-77.66770684186208, 40.2520018471609], [-77.67114556551182, 40.25756820646635], [-77.67028331236382, 40.259416253331686], [-77.65664740524042, 40.27043573199718], [-77.66508084056025, 40.279560435564925], [-77.66443992691488, 40.28079259297614], [-77.67132006440738, 40.28915705812416], [-77.68064771831932, 40.28017621682575], [-77.6989454462876, 40.26578137463014], [-77.70287702941111, 40.26364357070304], [-77.75234183815473, 40.37905652186015]]]}}]}